STARLINK-31107          
1 58684U 23211T   25069.76346863 -.00002386  00000+0 -81469-4 0  9997
2 58684  43.0004 339.0912 0000388 284.2300  75.8508 15.25895212 66824
STARLINK-31121          
1 58685U 23211U   25069.75667244 -.00005903  00000+0 -21609-3 0  9993
2 58685  43.0025 339.0447 0001095 278.8911  81.1816 15.25895596 66821
STARLINK-31137          
1 58686U 23211V   25069.81310979 -.00004084  00000+0 -14646-3 0  9993
2 58686  43.0004 338.6152 0001290 271.6821  88.3882 15.25888977 66833
STARLINK-31139          
1 58688U 23211X   25069.10658348 -.00010521  00000+0 -39229-3 0  9999
2 58688  43.0007 342.7649 0001056 312.8675  47.2087 15.25963298 66729
STARLINK-31106          
1 58689U 23211Y   25069.17885741  .00004496  00000+0  18169-3 0  9998
2 58689  42.9998 342.4427 0000568  60.6612 299.4296 15.25893317 66732
STARLINK-11072 [DTC]    
1 58705U 24002A   25069.91668981  .00044815  00000+0  37304-3 0  9994
2 58705  53.1586 267.2953 0000916  67.5262 257.5156 15.69691948  6053
STARLINK-11075 [DTC]    
1 58706U 24002B   25069.84146302  .00002085  00000+0  16721-4 0  9999
2 58706  53.1577 269.6622 0001496 142.3067 217.8059 15.76752404 69268
STARLINK-11077 [DTC]    
1 58707U 24002C   25067.00003472  .00030750  00000+0  25801-3 0  9994
2 58707  53.1584 281.7707 0000929  79.2756 258.9335 15.69682990  6065
STARLINK-11079 [DTC]    
1 58708U 24002D   25068.00002315 -.00011090  00000+0 -86846-4 0  9996
2 58708  53.1585 276.6824 0000881  71.5582 244.0264 15.69697524  5907
STARLINK-11076 [DTC]    
1 58709U 24002E   25067.00003472  .00020200  00000+0  17132-3 0  9993
2 58709  53.1591 281.5610 0000768  85.4121   3.7301 15.69690333  6061
STARLINK-11078 [DTC]    
1 58710U 24002F   25067.00003472  .00011232  00000+0  97499-4 0  9995
2 58710  53.1581 281.5043 0000827  92.7356  24.1428 15.69694719  6002
STARLINK-31031          
1 58711U 24002G   25069.36675900  .00000231  00000+0  35522-4 0  9994
2 58711  53.1599 104.8440 0001374  87.1126 273.0021 15.04925384 66487
STARLINK-31029          
1 58712U 24002H   25069.47609330 -.00001753  00000+0 -10311-3 0  9991
2 58712  53.1604 104.8057 0001427  83.7014 276.4138 15.04929795 66493
STARLINK-30973          
1 58713U 24002J   25069.47287143  .00000328  00000+0  42253-4 0  9992
2 58713  53.1609 104.7885 0001627  82.5459 277.5716 15.04926367 66495
STARLINK-31100          
1 58714U 24002K   25069.46966578  .00001015  00000+0  90288-4 0  9993
2 58714  53.1605 104.7696 0001422  88.1283 271.9869 15.04923456 66495
STARLINK-31102          
1 58715U 24002L   25069.46643688 -.00000102  00000+0  12250-4 0  9998
2 58715  53.1606 104.7511 0001467  90.1480 269.9678 15.04921167 66496
STARLINK-31098          
1 58716U 24002M   25069.52963163 -.00000627  00000+0 -24419-4 0  9992
2 58716  53.1605 104.4291 0001452  88.2983 271.8173 15.04918628 66500
STARLINK-31093          
1 58717U 24002N   25069.50280312 -.00000549  00000+0 -19003-4 0  9995
2 58717  53.1598 104.2836 0001103  90.7206 269.3910 15.04925969 66501
STARLINK-31097          
1 58718U 24002P   25069.45999604  .00000265  00000+0  37881-4 0  9998
2 58718  53.1608 104.7067 0001446  92.4881 267.6274 15.04922734 66492
STARLINK-31051          
1 58719U 24002Q   25069.52318924 -.00000724  00000+0 -31211-4 0  9990
2 58719  53.1601 104.3888 0001444  91.2656 268.8499 15.04924623 66501
STARLINK-31027          
1 58720U 24002R   25069.38714773 -.00000752  00000+0 -33190-4 0  9997
2 58720  53.1600 104.9624 0001311  88.4553 271.6587 15.04922073 66487
STARLINK-30972          
1 58721U 24002S   25069.78240142 -.00000496  00000+0 -15315-4 0  9990
2 58721  53.1594 103.1643 0001311  87.5454 272.5686 15.04923285 66545
