OBJECT_NAME,OBJECT_ID,EPOCH,MEAN_MOTION,ECCENTRICITY,INCLINATION,RA_OF_ASC_NODE,ARG_OF_PERICENTER,MEAN_ANOMALY,EPHEMERIS_TYPE,CLASSIFICATION_TYPE,NORAD_CAT_ID,ELEMENT_SET_NO,REV_AT_EPOCH,BSTAR,MEAN_MOTION_DOT,MEAN_MOTION_DDOT
STARLINK-31107,2023-211T,2025-03-10T18:19:23.689632,15.25895212,.0000388,43.0004,339.0912,284.2300,75.8508,0,U,58684,999,6682,-.81469E-4,-.2386E-4,0
STARLINK-31121,2023-211U,2025-03-10T18:09:36.498816,15.25895596,.0001095,43.0025,339.0447,278.8911,81.1816,0,U,58685,999,6682,-.21609E-3,-.5903E-4,0
STARLINK-31137,2023-211V,2025-03-10T19:30:52.685856,15.25888977,.000129,43.0004,338.6152,271.6821,88.3882,0,U,58686,999,6683,-.14646E-3,-.4084E-4,0
STARLINK-31139,2023-211X,2025-03-10T02:33:28.812672,15.25963298,.0001056,43.0007,342.7649,312.8675,47.2087,0,U,58688,999,6672,-.39229E-3,-.10521E-3,0
STARLINK-31106,2023-211Y,2025-03-10T04:17:33.280224,15.25893317,.0000568,42.9998,342.4427,60.6612,299.4296,0,U,58689,999,6673,.18169E-3,.4496E-4,0
STARLINK-11072 [DTC],2024-002A,2025-03-10T22:00:01.999584,15.69691948,.0000916,53.1586,267.2953,67.5262,257.5156,0,U,58705,999,605,.37304E-3,.44815E-3,0
STARLINK-11075 [DTC],2024-002B,2025-03-10T20:11:42.404928,15.76752404,.0001496,53.1577,269.6622,142.3067,217.8059,0,U,58706,999,6926,.16721E-4,.2085E-4,0
STARLINK-11077 [DTC],2024-002C,2025-03-08T00:00:02.999808,15.69682990,.0000929,53.1584,281.7707,79.2756,258.9335,0,U,58707,999,606,.25801E-3,.3075E-3,0
STARLINK-11079 [DTC],2024-002D,2025-03-09T00:00:02.000160,15.69697524,.0000881,53.1585,276.6824,71.5582,244.0264,0,U,58708,999,590,-.86846E-4,-.1109E-3,0
STARLINK-11076 [DTC],2024-002E,2025-03-08T00:00:02.999808,15.69690333,.0000768,53.1591,281.5610,85.4121,3.7301,0,U,58709,999,606,.17132E-3,.202E-3,0
STARLINK-11078 [DTC],2024-002F,2025-03-08T00:00:02.999808,15.69694719,.0000827,53.1581,281.5043,92.7356,24.1428,0,U,58710,999,600,.97499E-4,.11232E-3,0
STARLINK-31031,2024-002G,2025-03-10T08:48:07.977600,15.04925384,.0001374,53.1599,104.8440,87.1126,273.0021,0,U,58711,999,6648,.35522E-4,.231E-5,0
STARLINK-31029,2024-002H,2025-03-10T11:25:34.461120,15.04929795,.0001427,53.1604,104.8057,83.7014,276.4138,0,U,58712,999,6649,-.10311E-3,-.1753E-4,0
STARLINK-30973,2024-002J,2025-03-10T11:20:56.091552,15.04926367,.0001627,53.1609,104.7885,82.5459,277.5716,0,U,58713,999,6649,.42253E-4,.328E-5,0
STARLINK-31100,2024-002K,2025-03-10T11:16:19.123392,15.04923456,.0001422,53.1605,104.7696,88.1283,271.9869,0,U,58714,999,6649,.90288E-4,.1015E-4,0
STARLINK-31102,2024-002L,2025-03-10T11:11:40.146432,15.04921167,.0001467,53.1606,104.7511,90.1480,269.9678,0,U,58715,999,6649,.1225E-4,-.102E-5,0
STARLINK-31098,2024-002M,2025-03-10T12:42:40.172832,15.04918628,.0001452,53.1605,104.4291,88.2983,271.8173,0,U,58716,999,6650,-.24419E-4,-.627E-5,0
STARLINK-31093,2024-002N,2025-03-10T12:04:02.189568,15.04925969,.0001103,53.1598,104.2836,90.7206,269.3910,0,U,58717,999,6650,-.19003E-4,-.549E-5,0
STARLINK-31097,2024-002P,2025-03-10T11:02:23.657856,15.04922734,.0001446,53.1608,104.7067,92.4881,267.6274,0,U,58718,999,6649,.37881E-4,.265E-5,0
STARLINK-31051,2024-002Q,2025-03-10T12:33:23.550336,15.04924623,.0001444,53.1601,104.3888,91.2656,268.8499,0,U,58719,999,6650,-.31211E-4,-.724E-5,0
STARLINK-31027,2024-002R,2025-03-10T09:17:29.563872,15.04922073,.0001311,53.1600,104.9624,88.4553,271.6587,0,U,58720,999,6648,-.3319E-4,-.752E-5,0
STARLINK-30972,2024-002S,2025-03-10T18:46:39.482688,15.04923285,.0001311,53.1594,103.1643,87.5454,272.5686,0,U,58721,999,6654,-.15315E-4,-.496E-5,0
